BEIDOU-2 IGSO-5         
1 37948U 11073A   26167.63758388 -.00000172  00000+0  00000+0 0  9992
2 37948  47.6789 271.5524 0113945 221.6858  92.9362  1.00272874 53128
LUCH-5A                 
1 37951U 11074B   26167.50402579 -.00000057  00000+0  00000+0 0  9993
2 37951   8.7527  73.8173 0002200  23.0757 156.2756  1.00270120 53040
BEIDOU-2 G5             
1 38091U 12008A   26167.48257463  .00000054  00000+0  00000+0 0  9990
2 38091   3.5715  69.6964 0009105 272.5850 154.8484  1.00271594 52367
BEIDOU-2 M3             
1 38250U 12018A   26167.11475854 -.00000071  00000+0  00000+0 0  9994
2 38250  55.7590 304.9118 0020107 274.0322  85.7212  1.86229792 95923
BEIDOU-2 M4             
1 38251U 12018B   26167.04705925 -.00000071  00000+0  00000+0 0  9992
2 38251  55.6595 304.1282 0011292 275.7401  84.1149  1.86229354 95929
SES-5                   
1 38652U 12036A   26167.54330610  .00000032  00000+0  00000+0 0  9993
2 38652   0.0485 314.0298 0001806 132.6034  18.7495  1.00272264 44459
BEIDOU-2 M6             
1 38775U 12050B   26164.07202103 -.00000056  00000+0  00000+0 0  9992
2 38775  56.5408  63.0305 0013772 356.7295   3.2873  1.86230840 93236
GSAT-10                 
1 38779U 12051B   26167.48742797 -.00000166  00000+0  00000+0 0  9995
2 38779   0.0823 262.7408 0007778 184.4464  76.0501  1.00269915 50094
NAVSTAR 67 (USA 239)    
1 38833U 12053A   26167.31905498  .00000037  00000+0  00000+0 0  9995
2 38833  53.5858 143.6349 0180243  65.7434 296.0930  2.00567399 99422
GSAT0103 (GALILEO-FM3)  
1 38857U 12055A   26165.54265692 -.00000011  00000+0  00000+0 0  9994
2 38857  55.8050 101.6182 0004917 305.1909  54.7190  1.70473336 84960
BEIDOU-2 G6             
1 38953U 12059A   26167.63024821 -.00000180  00000+0  00000+0 0  9991
2 38953   4.4196  73.5252 0009578 324.1350 178.1629  1.00272058 49906
LUCH-5B                 
1 38977U 12061A   26166.96871394 -.00000144  00000+0  00000+0 0  9990
2 38977  10.4794  49.8909 0002521 151.7333  35.0817  1.00272153 49595
COSMOS 2485 [GLONASS-M] 
1 39155U 13019A   26166.97148047 -.00000021  00000+0  00000+0 0  9990
2 39155  65.4190  73.6456 0023179 234.1140 125.7013  2.13103301102251
NAVSTAR 68 (USA 242)    
1 39166U 13023A   26167.18601317 -.00000020  00000+0  00000+0 0  9994
2 39166  54.5048 269.0144 0141537  51.0389 310.2484  2.00563389 95862
IRNSS-1A                
1 39199U 13034A   26160.59779131  .00000070  00000+0  00000+0 0  9994
2 39199  35.7049  63.9797 0017411 184.2474 279.8453  1.00272948 47299
NAVSTAR 69 (USA 248)    
1 39533U 14008A   26167.18763547  .00000044  00000+0  00000+0 0  9995
2 39533  53.6545 149.3604 0084228 231.2656 127.9534  2.00559661 89663
ASTRA 5B                
1 39617U 14011B   26167.47555459  .00000136  00000+0  00000+0 0  9997
2 39617   0.0452 340.6495 0001744  94.4588  24.3375  1.00273179 44668
COSMOS 2492 [GLONASS-M] 
1 39620U 14012A   26166.93034490 -.00000054  00000+0  00000+0 0  9999
2 39620  65.2984 313.9789 0010434 325.0727  34.8423  2.13103210 95218
IRNSS-1B                
1 39635U 14017A   26165.77103216  .00000132  00000+0  00000+0 0  9990
2 39635  28.9259 240.4448 0023063 189.5629 165.7473  1.00275602 44760
LUCH-5V                 
1 39727U 14023A   26167.63232822 -.00000274  00000+0  00000+0 0  9990
2 39727   5.1307  69.7459 0001820  47.8911 109.6008  1.00274615 44353
NAVSTAR 70 (USA 251)    
1 39741U 14026A   26166.96454397 -.00000082  00000+0  00000+0 0  9994
2 39741  56.4989 331.5650 0038176 326.5795  33.1716  2.00560957 88519
COSMOS 2500 [GLONASS-M] 
1 40001U 14032A   26164.28459738 -.00000051  00000+0  00000+0 0  9995
2 40001  65.2352 313.8168 0007281 184.1744 175.8059  2.13106047 93378
NAVSTAR 71 (USA 256)    
1 40105U 14045A   26167.05630185 -.00000025  00000+0  00000+0 0  9990
2 40105  55.3526  88.5100 0033267 118.2726 242.0568  2.00558255 86056
GSAT0201 (GALILEO 5)    
1 40128U 14050A   26167.33896520 -.00000044  00000+0  00000+0 0  9990
2 40128  48.8765 273.4713 1674587 179.3614 180.9380  1.85519940 78300
GSAT0202 (GALILEO 6)    
1 40129U 14050B   26165.97755825 -.00000039  00000+0  00000+0 0  9995
2 40129  48.8947 272.6125 1675464 180.0339 180.0074  1.85520518 80441
IRNSS-1C                
1 40269U 14061A   26166.84573159 -.00000164  00000+0  00000+0 0  9996
2 40269   6.5145  88.9566 0022724   2.2755 200.3394  1.00269545 42676
NAVSTAR 72 (USA 258)    
1 40294U 14068A   26166.92633972 -.00000068  00000+0  00000+0 0  9993
2 40294  56.9867  31.0033 0067029  70.5476 290.2360  2.00576019 85189
COSMOS 2501 [GLONASS-K] 
1 40315U 14075A   26167.36219398  .00000074  00000+0  00000+0 0  9992
2 40315  63.6161 190.4005 0022630 212.4313 147.4857  2.13101280 89838
NAVSTAR 73 (USA 260)    
1 40534U 15013A   26167.06525027  .00000062  00000+0  00000+0 0  9991
2 40534  53.1679 204.2241 0109496  40.1202 320.7619  2.00551392 81804
GSAT0203 (GALILEO 7)    
1 40544U 15017A   26166.45306799 -.00000083  00000+0  00000+0 0  9995
2 40544  56.7863 341.6427 0002092 278.6810  81.2938  1.70475984 69175
GSAT0204 (GALILEO 8)    
1 40545U 15017B   26165.53569013 -.00000079  00000+0  00000+0 0  9999
2 40545  56.7953 341.6863 0001910 248.0709 111.9109  1.70475571 32203
